{
  "norad_id": 67349,
  "name": "STARLINK-36457",
  "history": [
    {
      "epoch": "2026-03-28T18:40:16.196736",
      "apogee_km": 484.2993517411087,
      "perigee_km": 481.7419238431976,
      "latitude_deg": -9.886246750139039,
      "longitude_deg": -90.41533695999533,
      "semi_major_axis_km": 6861.157637792153,
      "eccentricity": 0.00018637,
      "inclination_deg": 42.9999,
      "raan_deg": 119.2211,
      "arg_perigee_deg": 277.392,
      "mean_anomaly_deg": 82.672,
      "mean_motion_rev_day": 15.27589504
    }
  ]
}