{"fetched_at":"2026-03-30T06:02:59Z","count":15439,"tles":[{"name":"STARLINK-36457","line1":"1 67349U 26003R   26087.77796524  .00021346  00000+0  78273-3 0  9995","line2":"2 67349  42.9999 119.2211 0001863 277.3920  82.6720 15.27589504 11742","category":"Starlink"}]}